{
  "type": "FeatureCollection",
  "features": [
    {
      "type": "Feature",
      "properties": {
        "norad_id": 34962,
        "name": "COSMOS 2251 DEB",
        "group": "cosmos-2251-debris",
        "lat": -68.20795901854027,
        "lon": 149.09755503020108,
        "alt_km": 731.6556321984117,
        "timestamp": "2025-12-11T22:43:47.666227+00:00",
        "meta_object_name": "COSMOS 2251 DEB",
        "meta_object_id": "1993-036AER",
        "meta_epoch": "2025-12-10T13:52:41.169792",
        "meta_mean_motion": 14.46507093,
        "meta_eccentricity": 0.0018754,
        "meta_inclination": 74.0294,
        "meta_ra_of_asc_node": 197.4019,
        "meta_arg_of_pericenter": 310.673,
        "meta_mean_anomaly": 49.2798,
        "meta_ephemeris_type": 0,
        "meta_classification_type": "U",
        "meta_norad_cat_id": 34962,
        "meta_element_set_no": 999,
        "meta_rev_at_epoch": 87547,
        "meta_bstar": 0.00061582,
        "meta_mean_motion_dot": 2.195e-05,
        "meta_mean_motion_ddot": 0,
        "tle_line1": "1 34962U 93036AER 25344.57825428  .00002195  00000+0  61582-3 0  9995",
        "tle_line2": "2 34962  74.0294 197.4019 0018754 310.6730  49.2798 14.46507093875477"
      },
      "geometry": {
        "type": "Point",
        "coordinates": [
          149.09755503020108,
          -68.20795901854027
        ]
      }
    },
    {
      "type": "Feature",
      "properties": {
        "norad_id": 34963,
        "name": "COSMOS 2251 DEB",
        "group": "cosmos-2251-debris",
        "lat": 9.646920583195223,
        "lon": -138.5375702820261,
        "alt_km": 713.3276148891227,
        "timestamp": "2025-12-11T22:43:47.666252+00:00",
        "meta_object_name": "COSMOS 2251 DEB",
        "meta_object_id": "1993-036AES",
        "meta_epoch": "2025-12-08T12:52:00.806016",
        "meta_mean_motion": 14.51014391,
        "meta_eccentricity": 0.0042597,
        "meta_inclination": 74.1718,
        "meta_ra_of_asc_node": 50.5866,
        "meta_arg_of_pericenter": 247.8405,
        "meta_mean_anomaly": 111.8233,
        "meta_ephemeris_type": 0,
        "meta_classification_type": "U",
        "meta_norad_cat_id": 34963,
        "meta_element_set_no": 999,
        "meta_rev_at_epoch": 86740,
        "meta_bstar": 0.0019565,
        "meta_mean_motion_dot": 7.813e-05,
        "meta_mean_motion_ddot": 0,
        "tle_line1": "1 34963U 93036AES 25342.53612044  .00007813  00000+0  19565-2 0  9993",
        "tle_line2": "2 34963  74.1718  50.5866 0042597 247.8405 111.8233 14.51014391867405"
      },
      "geometry": {
        "type": "Point",
        "coordinates": [
          -138.5375702820261,
          9.646920583195223
        ]
      }
    },
    {
      "type": "Feature",
      "properties": {
        "norad_id": 34964,
        "name": "COSMOS 2251 DEB",
        "group": "cosmos-2251-debris",
        "lat": -23.84479174779698,
        "lon": -18.08418476317123,
        "alt_km": 988.872847334048,
        "timestamp": "2025-12-11T22:43:47.666263+00:00",
        "meta_object_name": "COSMOS 2251 DEB",
        "meta_object_id": "1993-036AET",
        "meta_epoch": "2025-12-11T09:08:17.866176",
        "meta_mean_motion": 14.00597574,
        "meta_eccentricity": 0.02128281,
        "meta_inclination": 73.9709,
        "meta_ra_of_asc_node": 350.2008,
        "meta_arg_of_pericenter": 208.8532,
        "meta_mean_anomaly": 150.07,
        "meta_ephemeris_type": 0,
        "meta_classification_type": "U",
        "meta_norad_cat_id": 34964,
        "meta_element_set_no": 999,
        "meta_rev_at_epoch": 84459,
        "meta_bstar": 0.0021903006,
        "meta_mean_motion_dot": 3.941e-05,
        "meta_mean_motion_ddot": 0,
        "tle_line1": "1 34964U 93036AET 25345.38076234  .00003941  00000+0  21903-2 0  9992",
        "tle_line2": "2 34964  73.9709 350.2008 0212828 208.8532 150.0700 14.00597574844597"
      },
      "geometry": {
        "type": "Point",
        "coordinates": [
          -18.08418476317123,
          -23.84479174779698
        ]
      }
    },
    {
      "type": "Feature",
      "properties": {
        "norad_id": 34965,
        "name": "COSMOS 2251 DEB",
        "group": "cosmos-2251-debris",
        "lat": -73.58946719998706,
        "lon": 26.12204634424655,
        "alt_km": 718.2065228944593,
        "timestamp": "2025-12-11T22:43:47.666273+00:00",
        "meta_object_name": "COSMOS 2251 DEB",
        "meta_object_id": "1993-036AEU",
        "meta_epoch": "2025-12-11T09:54:10.265184",
        "meta_mean_motion": 14.48702327,
        "meta_eccentricity": 0.00265268,
        "meta_inclination": 74.0505,
        "meta_ra_of_asc_node": 130.9513,
        "meta_arg_of_pericenter": 258.4376,
        "meta_mean_anomaly": 101.3805,
        "meta_ephemeris_type": 0,
        "meta_classification_type": "U",
        "meta_norad_cat_id": 34965,
        "meta_element_set_no": 999,
        "meta_rev_at_epoch": 87094,
        "meta_bstar": 0.00059334026,
        "meta_mean_motion_dot": 2.219e-05,
        "meta_mean_motion_ddot": 0,
        "tle_line1": "1 34965U 93036AEU 25345.41261881  .00002219  00000+0  59334-3 0  9998",
        "tle_line2": "2 34965  74.0505 130.9513 0026526 258.4376 101.3805 14.48702327870942"
      },
      "geometry": {
        "type": "Point",
        "coordinates": [
          26.12204634424655,
          -73.58946719998706
        ]
      }
    },
    {
      "type": "Feature",
      "properties": {
        "norad_id": 34967,
        "name": "COSMOS 2251 DEB",
        "group": "cosmos-2251-debris",
        "lat": -9.356638984837435,
        "lon": 78.0490448124173,
        "alt_km": 771.0738510892897,
        "timestamp": "2025-12-11T22:43:47.666284+00:00",
        "meta_object_name": "COSMOS 2251 DEB",
        "meta_object_id": "1993-036AEW",
        "meta_epoch": "2025-12-11T01:54:29.105856",
        "meta_mean_motion": 14.44250286,
        "meta_eccentricity": 0.00379354,
        "meta_inclination": 73.9933,
        "meta_ra_of_asc_node": 256.9557,
        "meta_arg_of_pericenter": 43.5887,
        "meta_mean_anomaly": 316.8256,
        "meta_ephemeris_type": 0,
        "meta_classification_type": "U",
        "meta_norad_cat_id": 34967,
        "meta_element_set_no": 999,
        "meta_rev_at_epoch": 64933,
        "meta_bstar": 0.0010619117,
        "meta_mean_motion_dot": 3.655e-05,
        "meta_mean_motion_ddot": 0,
        "tle_line1": "1 34967U 93036AEW 25345.07950354  .00003655  00000+0  10619-2 0  9999",
        "tle_line2": "2 34967  73.9933 256.9557 0037935  43.5887 316.8256 14.44250286649338"
      },
      "geometry": {
        "type": "Point",
        "coordinates": [
          78.0490448124173,
          -9.356638984837435
        ]
      }
    },
    {
      "type": "Feature",
      "properties": {
        "norad_id": 34968,
        "name": "COSMOS 2251 DEB",
        "group": "cosmos-2251-debris",
        "lat": 1.5199439562188022,
        "lon": -110.98467846423394,
        "alt_km": 636.809647768132,
        "timestamp": "2025-12-11T22:43:47.666295+00:00",
        "meta_object_name": "COSMOS 2251 DEB",
        "meta_object_id": "1993-036AEX",
        "meta_epoch": "2025-12-11T11:12:23.787072",
        "meta_mean_motion": 14.59403655,
        "meta_eccentricity": 0.00865527,
        "meta_inclination": 74.0389,
        "meta_ra_of_asc_node": 249.4951,
        "meta_arg_of_pericenter": 10.16,
        "meta_mean_anomaly": 350.1288,
        "meta_ephemeris_type": 0,
        "meta_classification_type": "U",
        "meta_norad_cat_id": 34968,
        "meta_element_set_no": 999,
        "meta_rev_at_epoch": 88459,
        "meta_bstar": 0.00028941765,
        "meta_mean_motion_dot": 1.412e-05,
        "meta_mean_motion_ddot": 0,
        "tle_line1": "1 34968U 93036AEX 25345.46694198  .00001412  00000+0  28942-3 0  9992",
        "tle_line2": "2 34968  74.0389 249.4951 0086552  10.1600 350.1288 14.59403655884594"
      },
      "geometry": {
        "type": "Point",
        "coordinates": [
          -110.98467846423394,
          1.5199439562188022
        ]
      }
    },
    {
      "type": "Feature",
      "properties": {
        "norad_id": 34969,
        "name": "COSMOS 2251 DEB",
        "group": "cosmos-2251-debris",
        "lat": 9.486635456674358,
        "lon": -158.1517689190283,
        "alt_km": 733.7461741470561,
        "timestamp": "2025-12-11T22:43:47.666345+00:00",
        "meta_object_name": "COSMOS 2251 DEB",
        "meta_object_id": "1993-036AEY",
        "meta_epoch": "2025-12-09T11:16:06.111552",
        "meta_mean_motion": 14.32248944,
        "meta_eccentricity": 0.00738203,
        "meta_inclination": 74.0146,
        "meta_ra_of_asc_node": 29.119,
        "meta_arg_of_pericenter": 163.1468,
        "meta_mean_anomaly": 197.2162,
        "meta_ephemeris_type": 0,
        "meta_classification_type": "U",
        "meta_norad_cat_id": 34969,
        "meta_element_set_no": 999,
        "meta_rev_at_epoch": 65090,
        "meta_bstar": 0.00049233942,
        "meta_mean_motion_dot": 1.343e-05,
        "meta_mean_motion_ddot": 0,
        "tle_line1": "1 34969U 93036AEY 25343.46951518  .00001343  00000+0  49234-3 0  9993",
        "tle_line2": "2 34969  74.0146  29.1190 0073820 163.1468 197.2162 14.32248944650905"
      },
      "geometry": {
        "type": "Point",
        "coordinates": [
          -158.1517689190283,
          9.486635456674358
        ]
      }
    }
  ]
}